{"type": "FeatureCollection", "features": [{"type": "Feature", "properties": {"norad_id": 50032, "name": "COSMOS 1408 DEB", "group": "cosmos-1408-debris", "lat": -53.8094212341048, "lon": -126.02425414927241, "alt_km": 433.75190763037426, "timestamp": "2025-12-27T04:40:45.776182+00:00", "meta": {"OBJECT_NAME": "COSMOS 1408 DEB", "OBJECT_ID": "1982-092RU", "EPOCH": "2025-12-26T13:41:14.334720", "MEAN_MOTION": 15.45830643, "ECCENTRICITY": 0.0016663, "INCLINATION": 82.5631, "RA_OF_ASC_NODE": 44.3315, "ARG_OF_PERICENTER": 157.9043, "MEAN_ANOMALY": 202.2928, "EPHEMERIS_TYPE": 0, "CLASSIFICATION_TYPE": "U", "NORAD_CAT_ID": 50032, "ELEMENT_SET_NO": 999, "REV_AT_EPOCH": 22817, "BSTAR": 0.0001035, "MEAN_MOTION_DOT": 5.085e-05, "MEAN_MOTION_DDOT": 0}, "tle": {"line1": "1 50032U 82092RU  25360.57030480  .00005085  00000+0  10350-3 0  9993", "line2": "2 50032  82.5631  44.3315 0016663 157.9043 202.2928 15.45830643228172"}}, "geometry": {"type": "Point", "coordinates": [-126.02425414927241, -53.8094212341048]}}, {"type": "Feature", "properties": {"norad_id": 50058, "name": "COSMOS 1408 DEB", "group": "cosmos-1408-debris", "lat": -28.936233951465756, "lon": 50.0880693201173, "alt_km": 377.1279376720049, "timestamp": "2025-12-27T04:40:45.776203+00:00", "meta": {"OBJECT_NAME": "COSMOS 1408 DEB", "OBJECT_ID": "1982-092SW", "EPOCH": "2025-12-26T13:27:27.815040", "MEAN_MOTION": 15.64941928, "ECCENTRICITY": 0.0015789, "INCLINATION": 82.6117, "RA_OF_ASC_NODE": 54.8668, "ARG_OF_PERICENTER": 51.6481, "MEAN_ANOMALY": 308.6195, "EPHEMERIS_TYPE": 0, "CLASSIFICATION_TYPE": "U", "NORAD_CAT_ID": 50058, "ELEMENT_SET_NO": 999, "REV_AT_EPOCH": 23020, "BSTAR": 0.00032591, "MEAN_MOTION_DOT": 0.00032187, "MEAN_MOTION_DDOT": 0}, "tle": {"line1": "1 50058U 82092SW  25360.56073860  .00032187  00000+0  32591-3 0  9993", "line2": "2 50058  82.6117  54.8668 0015789  51.6481 308.6195 15.64941928230205"}}, "geometry": {"type": "Point", "coordinates": [50.0880693201173, -28.936233951465756]}}, {"type": "Feature", "properties": {"norad_id": 50404, "name": "COSMOS 1408 DEB", "group": "cosmos-1408-debris", "lat": 21.856913717840463, "lon": -156.63964655981619, "alt_km": 584.5276701321372, "timestamp": "2025-12-27T04:40:45.776217+00:00", "meta": {"OBJECT_NAME": "COSMOS 1408 DEB", "OBJECT_ID": "1982-092ADS", "EPOCH": "2025-12-26T20:39:36.345312", "MEAN_MOTION": 15.16126351, "ECCENTRICITY": 0.01657217, "INCLINATION": 82.2021, "RA_OF_ASC_NODE": 200.5526, "ARG_OF_PERICENTER": 150.2219, "MEAN_ANOMALY": 210.8575, "EPHEMERIS_TYPE": 0, "CLASSIFICATION_TYPE": "U", "NORAD_CAT_ID": 50404, "ELEMENT_SET_NO": 999, "REV_AT_EPOCH": 21407, "BSTAR": 0.0039185275, "MEAN_MOTION_DOT": 0.00108762, "MEAN_MOTION_DDOT": 0}, "tle": {"line1": "1 50404U 82092ADS 25360.86083733  .00108762  00000+0  39185-2 0  9999", "line2": "2 50404  82.2021 200.5526 0165721 150.2219 210.8575 15.16126351214075"}}, "geometry": {"type": "Point", "coordinates": [-156.63964655981619, 21.856913717840463]}}, {"type": "Feature", "properties": {"norad_id": 50621, "name": "COSMOS 1408 DEB", "group": "cosmos-1408-debris", "lat": -42.34623795072216, "lon": 52.291838861661155, "alt_km": 417.7097483488478, "timestamp": "2025-12-27T04:40:45.776228+00:00", "meta": {"OBJECT_NAME": "COSMOS 1408 DEB", "OBJECT_ID": "1982-092ALR", "EPOCH": "2025-12-26T21:09:11.194848", "MEAN_MOTION": 15.57392209, "ECCENTRICITY": 0.00291333, "INCLINATION": 82.5695, "RA_OF_ASC_NODE": 59.4502, "ARG_OF_PERICENTER": 101.9906, "MEAN_ANOMALY": 258.4618, "EPHEMERIS_TYPE": 0, "CLASSIFICATION_TYPE": "U", "NORAD_CAT_ID": 50621, "ELEMENT_SET_NO": 999, "REV_AT_EPOCH": 22470, "BSTAR": 0.00039407538, "MEAN_MOTION_DOT": 0.00029518, "MEAN_MOTION_DDOT": 0}, "tle": {"line1": "1 50621U 82092ALR 25360.88137957  .00029518  00000+0  39408-3 0  9990", "line2": "2 50621  82.5695  59.4502 0029133 101.9906 258.4618 15.57392209224702"}}, "geometry": {"type": "Point", "coordinates": [52.291838861661155, -42.34623795072216]}}]}